     2.10           N: GPS NAV DATA                         RINEX VERSION / TYPE
teqc  2010Oct21                         20180928 12:01:03UTCPGM / RUN BY / DATE
    18                                                      LEAP SECONDS
Linux 2.4.20-8|Pentium IV|gcc -static|Linux|486/DX+         COMMENT
    1.0245D-08  7.4506D-09 -5.9605D-08 -5.9605D-08          ION ALPHA
    8.8064D+04  0.0000D+00 -1.9661D+05 -6.5536D+04          ION BETA
    2.793967723846D-09 1.243449787580D-14    61440      997 DELTA-UTC: A0,A1,T,W
                                                            END OF HEADER
32 18  9 28 10  0  0.0-4.101879894733D-04 1.182343112305D-11 0.000000000000D+00
    1.030000000000D+02 1.031250000000D+01 4.208746739767D-09 2.817514061661D+00
    6.295740604401D-07 2.306548296474D-03 1.163594424725D-05 5.153715913773D+03
    4.680000000000D+05-2.793967723846D-08-2.798504323361D+00-2.421438694000D-08
    9.574279331964D-01 1.520000000000D+02-2.560461487053D+00-7.852112786301D-09
   -1.528635102359D-10 1.000000000000D+00 2.020000000000D+03 0.000000000000D+00
    2.000000000000D+00 0.000000000000D+00 4.656612873077D-10 1.030000000000D+02
    4.679700000000D+05 4.000000000000D+00
 1 18  9 28 12  0  0.0-9.362725540996D-05-4.774847184308D-12 0.000000000000D+00
    8.300000000000D+01 4.425000000000D+01 4.584119518407D-09 9.241881025441D-01
    2.468004822731D-06 8.127714623697D-03 7.783994078636D-06 5.153661376953D+03
    4.752000000000D+05-5.029141902924D-08 1.403028201208D+00 1.154839992523D-07
    9.723428101867D-01 2.348750000000D+02 6.973420857255D-01-8.181055059496D-09
    3.250135381184D-10 1.000000000000D+00 2.020000000000D+03 0.000000000000D+00
    2.800000000000D+00 0.000000000000D+00 5.587935447693D-09 8.300000000000D+01
    4.680000000000D+05 4.000000000000D+00
 8 18  9 28 11 59 44.0-1.166942529380D-04-1.364242052659D-12 0.000000000000D+00
    1.500000000000D+01-5.506250000000D+01 4.205175162425D-09-2.784381680879D+00
   -2.762302756310D-06 3.575279028155D-03 1.109205186367D-05 5.153635492325D+03
    4.751840000000D+05-8.195638656616D-08 3.377441910069D-01 3.725290298462D-08
    9.700234720683D-01 1.704687500000D+02-4.112412626036D-01-7.768895034233D-09
    4.285892810353D-12 1.000000000000D+00 2.020000000000D+03 0.000000000000D+00
    2.000000000000D+00 0.000000000000D+00 5.122274160385D-09 1.500000000000D+01
    4.680000000000D+05 4.000000000000D+00
10 18  9 28 12  0  0.0 1.788944937289D-04-2.728484105319D-12 0.000000000000D+00
    9.200000000000D+01-3.434375000000D+01 4.817343518837D-09-1.050414884510D+00
   -1.884996891022D-06 3.822376253083D-03 5.673617124557D-06 5.153658039093D+03
    4.752000000000D+05 1.080334186554D-07 2.442837103731D+00-6.705522537231D-08
    9.616830235352D-01 2.738750000000D+02-2.805526744147D+00-8.248200713524D-09
   -3.739441477033D-10 1.000000000000D+00 2.020000000000D+03 0.000000000000D+00
    2.000000000000D+00 0.000000000000D+00 1.862645149231D-09 9.200000000000D+01
    4.680000000000D+05 4.000000000000D+00
11 18  9 28 12  0  0.0-7.144627161324D-04 3.069544618484D-12 0.000000000000D+00
    9.400000000000D+01 2.334375000000D+01 5.977748997240D-09 2.775058707305D-01
    1.244246959686D-06 1.698941492941D-02 1.017563045025D-05 5.153656412125D+03
    4.752000000000D+05-1.825392246246D-07 9.678194309126D-01-1.490116119385D-07
    9.066999628929D-01 1.591250000000D+02 1.821983803887D+00-8.985731434639D-09
    3.439428980308D-10 1.000000000000D+00 2.020000000000D+03 0.000000000000D+00
    2.800000000000D+00 0.000000000000D+00-1.210719347000D-08 9.400000000000D+01
    4.680000000000D+05 4.000000000000D+00
14 18  9 28 11 59 44.0-9.706383571029D-05 2.273736754432D-13 0.000000000000D+00
    1.400000000000D+01 1.284375000000D+01 4.062312068746D-09 2.847475836684D+00
    7.189810276031D-07 1.003831310663D-02 1.193024218082D-05 5.153636661530D+03
    4.751840000000D+05 5.774199962616D-08-2.713332970924D+00-2.980232238770D-08
    9.612548698380D-01 1.463750000000D+02-1.943501840230D+00-7.601388056895D-09
   -1.567922453121D-10 1.000000000000D+00 2.020000000000D+03 0.000000000000D+00
    2.000000000000D+00 0.000000000000D+00-9.778887033463D-09 1.400000000000D+01
    4.680000000000D+05 4.000000000000D+00
16 18  9 28 12  0  0.0 6.867107003927D-06-1.818989403546D-12 0.000000000000D+00
    5.000000000000D+01-5.828125000000D+01 4.205175162425D-09-2.194053735008D+00
   -3.326684236526D-06 1.001673215069D-02 4.364177584648D-06 5.153702444077D+03
    4.752000000000D+05 1.173466444016D-07-6.123564975518D-01-1.713633537292D-07
    9.858075871858D-01 3.076875000000D+02 5.206812907514D-01-8.048192382375D-09
   -8.607501394126D-11 1.000000000000D+00 2.020000000000D+03 0.000000000000D+00
    2.000000000000D+00 0.000000000000D+00-1.071020960808D-08 5.000000000000D+01
    4.680000000000D+05 4.000000000000D+00
18 18  9 28 12  0  0.0 6.228359416127D-05 4.206412995700D-12 0.000000000000D+00
    6.000000000000D+01 4.181250000000D+01 5.081997399876D-09 7.020867840241D-01
    2.238899469376D-06 1.498914533295D-02 8.279457688332D-06 5.153624822617D+03
    4.752000000000D+05-2.235174179077D-07 1.353145522525D+00 3.352761268616D-08
    9.507997819988D-01 2.180000000000D+02 1.352448831197D+00-8.582143194998D-09
    3.321566928024D-10 1.000000000000D+00 2.020000000000D+03 0.000000000000D+00
    2.000000000000D+00 0.000000000000D+00-6.519258022308D-09 6.000000000000D+01
    4.680000000000D+05 4.000000000000D+00
20 18  9 28 12  0  0.0 5.164886824787D-04 5.684341886081D-13 0.000000000000D+00
    7.300000000000D+01-2.887500000000D+01 5.680593762389D-09 7.939041820730D-01
   -1.816079020500D-06 4.312333068810D-03 4.841014742851D-06 5.153666160583D+03
    4.752000000000D+05 2.980232238770D-08 2.332583703371D+00-6.146728992462D-08
    9.290027809919D-01 2.723750000000D+02 2.113873020805D+00-8.764650797172D-09
   -3.225134339791D-10 1.000000000000D+00 2.020000000000D+03 0.000000000000D+00
    2.000000000000D+00 0.000000000000D+00-8.381903171539D-09 7.300000000000D+01
    4.680000000000D+05 4.000000000000D+00
21 18  9 28 12  0  0.0-3.299210220575D-04 6.025402399246D-12 0.000000000000D+00
    5.700000000000D+01 3.734375000000D+01 5.232360805973D-09-8.325741495866D-01
    2.089887857437D-06 2.434695966076D-02 8.445233106613D-06 5.153617444992D+03
    4.752000000000D+05-4.023313522339D-07 1.345350689771D+00 8.568167686462D-08
    9.450768450098D-01 2.143125000000D+02-1.523964402846D+00-8.811081302617D-09
    4.643050544549D-10 1.000000000000D+00 2.020000000000D+03 0.000000000000D+00
    2.000000000000D+00 0.000000000000D+00-1.024454832077D-08 5.700000000000D+01
    4.680000000000D+05 4.000000000000D+00
27 18  9 28 12  0  0.0 3.403509035707D-04-4.092726157978D-12 0.000000000000D+00
    6.800000000000D+01-5.265625000000D+01 3.943735700993D-09 3.125267862968D+00
   -2.756714820862D-06 6.049228017218D-03 1.114420592785D-05 5.153700794220D+03
    4.752000000000D+05-1.117587089539D-07 3.471845725339D-01-5.960464477539D-08
    9.782478570698D-01 1.750625000000D+02 4.492657043485D-01-7.627460571492D-09
   -2.500104139373D-12 1.000000000000D+00 2.020000000000D+03 0.000000000000D+00
    2.000000000000D+00 0.000000000000D+00 1.862645149231D-09 6.800000000000D+01
    4.680000000000D+05 4.000000000000D+00
28 18  9 28 12  0  0.0 7.469211705029D-04 2.160049916711D-12 0.000000000000D+00
    6.000000000000D+01-6.721875000000D+01 4.170888019942D-09-2.256660742018D+00
   -3.166496753693D-06 1.958512386773D-02 3.656372427940D-06 5.153687065125D+03
    4.752000000000D+05 1.657754182816D-07-6.082080685702D-01 1.806765794754D-07
    9.847082759322D-01 3.134687500000D+02-1.512699140734D+00-7.852827101769D-09
   -1.189335254873D-10 1.000000000000D+00 2.020000000000D+03 0.000000000000D+00
    2.800000000000D+00 0.000000000000D+00-1.117587089539D-08 6.000000000000D+01
    4.680000000000D+05 4.000000000000D+00
32 18  9 28 12  0  0.0-4.101032391191D-04 1.182343112305D-11 0.000000000000D+00
    1.040000000000D+02 2.156250000000D+00 4.213746948045D-09-2.415571417971D+00
    2.607703208923D-07 2.307685208507D-03 1.177936792374D-05 5.153713771820D+03
    4.752000000000D+05-1.005828380585D-07-2.798560205369D+00 2.607703208923D-08
    9.574268945246D-01 1.503750000000D+02-2.560407920844D+00-7.782824185867D-09
   -2.146517982518D-10 1.000000000000D+00 2.020000000000D+03 0.000000000000D+00
    2.000000000000D+00 0.000000000000D+00 4.656612873077D-10 1.040000000000D+02
    4.680000000000D+05 4.000000000000D+00
22 18  9 28 12  0  0.0-5.319281481206D-04-1.068656274583D-11 0.000000000000D+00
    5.500000000000D+01-3.393750000000D+01 5.727738583303D-09 2.364115022720D+00
   -1.821666955948D-06 7.058641174808D-03 4.312023520470D-06 5.153697734833D+03
    4.752000000000D+05 9.313225746155D-08 2.382075551785D+00-6.705522537231D-08
    9.257770407754D-01 2.730000000000D+02-1.479197848585D+00-8.638931274735D-09
   -3.853731951976D-10 1.000000000000D+00 2.020000000000D+03 0.000000000000D+00
    2.000000000000D+00 0.000000000000D+00-1.816079020500D-08 5.500000000000D+01
    4.685400000000D+05 4.000000000000D+00
